$$SOE
2460154.500000000, A.D. 2023-Jul-29 00:00:00.0000, -7.114744183889018E+08, -1.517008796248563E+08, 2.953967321937227E+07,
2460161.500000000, A.D. 2023-Aug-05 00:00:00.0000, -7.100715756360650E+08, -1.587720519356935E+08, 2.926371085325539E+07,
2460168.500000000, A.D. 2023-Aug-12 00:00:00.0000, -7.085795275066162E+08, -1.658232837782670E+08, 2.898407119252038E+07,
2460175.500000000, A.D. 2023-Aug-19 00:00:00.0000, -7.069985029153798E+08, -1.728537000847563E+08, 2.870079112384413E+07,
2460182.500000000, A.D. 2023-Aug-26 00:00:00.0000, -7.053287341281679E+08, -1.798624277839715E+08, 2.841390763752326E+07,
2460189.500000000, A.D. 2023-Sep-02 00:00:00.0000, -7.035704568022227E+08, -1.868485956727224E+08, 2.812345783299810E+07,
2460196.500000000, A.D. 2023-Sep-09 00:00:00.0000, -7.017239100159675E+08, -1.938113344004902E+08, 2.782947891313455E+07,
2460203.500000000, A.D. 2023-Sep-16 00:00:00.0000, -6.997893361196074E+08, -2.007497766253943E+08, 2.753200814713102E+07,
2460210.500000000, A.D. 2023-Sep-23 00:00:00.0000, -6.977669799901084E+08, -2.076630570546342E+08, 2.723108278736232E+07,
2460217.500000000, A.D. 2023-Sep-30 00:00:00.0000, -6.956570880299883E+08, -2.145503111786717E+08, 2.692674006870896E+07,
2460224.500000000, A.D. 2023-Oct-07 00:00:00.0000, -6.934599092635514E+08, -2.214106732420793E+08, 2.661901746201729E+07,
2460231.500000000, A.D. 2023-Oct-14 00:00:00.0000, -6.911756974908783E+08, -2.282432767644028E+08, 2.630795281570832E+07,
2460238.500000000, A.D. 2023-Oct-21 00:00:00.0000, -6.888047112712345E+08, -2.350472560082428E+08, 2.599358422058735E+07,
2460245.500000000, A.D. 2023-Oct-28 00:00:00.0000, -6.863472131600988E+08, -2.418217461342308E+08, 2.567594991344547E+07,
2460252.500000000, A.D. 2023-Nov-04 00:00:00.0000, -6.838034694496324E+08, -2.485658828133039E+08, 2.535508827139494E+07,
2460259.500000000, A.D. 2023-Nov-11 00:00:00.0000, -6.811737502350130E+08, -2.552788018963011E+08, 2.503103783187796E+07,
2460266.500000000, A.D. 2023-Nov-18 00:00:00.0000, -6.784583295872649E+08, -2.619596392052906E+08, 2.470383731321146E+07,
2460273.500000000, A.D. 2023-Nov-25 00:00:00.0000, -6.756574857598889E+08, -2.686075304241041E+08, 2.437352563106228E+07,
2460280.500000000, A.D. 2023-Dec-02 00:00:00.0000, -6.727715014012119E+08, -2.752216110992858E+08, 2.404014190753727E+07,
2460287.500000000, A.D. 2023-Dec-09 00:00:00.0000, -6.698006636947218E+08, -2.818010168103679E+08, 2.370372546105374E+07,
2460294.500000000, A.D. 2023-Dec-16 00:00:00.0000, -6.667452641399244E+08, -2.883448834968847E+08, 2.336431575168799E+07,
2460301.500000000, A.D. 2023-Dec-23 00:00:00.0000, -6.636055976253048E+08, -2.948523472546023E+08, 2.302195230618219E+07,
2460308.500000000, A.D. 2023-Dec-30 00:00:00.0000, -6.603819621335316E+08, -3.013225425516107E+08, 2.267667483117016E+07,
2460315.500000000, A.D. 2024-Jan-06 00:00:00.0000, -6.570746608512856E+08, -3.077546012250227E+08, 2.232852348408537E+07,
2460322.500000000, A.D. 2024-Jan-13 00:00:00.0000, -6.536840035111516E+08, -3.141476540652294E+08, 2.197753886285201E+07,
2460329.500000000, A.D. 2024-Jan-20 00:00:00.0000, -6.502103057420281E+08, -3.205008319029232E+08, 2.162376185398111E+07,
2460336.500000000, A.D. 2024-Jan-27 00:00:00.0000, -6.466538884564221E+08, -3.268132655465209E+08, 2.126723357820517E+07,
2460343.500000000, A.D. 2024-Feb-03 00:00:00.0000, -6.430150777027117E+08, -3.330840855187562E+08, 2.090799539516619E+07,
2460350.500000000, A.D. 2024-Feb-10 00:00:00.0000, -6.392942047050267E+08, -3.393124218838774E+08, 2.054608891769764E+07,
2460357.500000000, A.D. 2024-Feb-17 00:00:00.0000, -6.354916059522928E+08, -3.454974041578040E+08, 2.018155602344649E+07,
2460364.500000000, A.D. 2024-Feb-24 00:00:00.0000, -6.316076233008331E+08, -3.516381612865995E+08, 1.981443886161281E+07,
2460371.500000000, A.D. 2024-Mar-02 00:00:00.0000, -6.276426040614595E+08, -3.577338217258029E+08, 1.944477984936121E+07,
2460378.500000000, A.D. 2024-Mar-09 00:00:00.0000, -6.235969009324516E+08, -3.637835136834283E+08, 1.907262163996513E+07,
2460385.500000000, A.D. 2024-Mar-16 00:00:00.0000, -6.194708713832281E+08, -3.697863653292719E+08, 1.869800704250428E+07,
2460392.500000000, A.D. 2024-Mar-23 00:00:00.0000, -6.152648765922683E+08, -3.757415038613386E+08, 1.832097899321216E+07,
2460399.500000000, A.D. 2024-Mar-30 00:00:00.0000, -6.109792821802726E+08, -3.816480534561086E+08, 1.794158078182083E+07,
2460406.500000000, A.D. 2024-Apr-06 00:00:00.0000, -6.066144604825236E+08, -3.875051354704129E+08, 1.755985623418336E+07,
2460413.500000000, A.D. 2024-Apr-13 00:00:00.0000, -6.021707908095912E+08, -3.933118700585935E+08, 1.717584959381722E+07,
2460420.500000000, A.D. 2024-Apr-20 00:00:00.0000, -5.976486586485927E+08, -3.990673765281121E+08, 1.678960540848063E+07,
2460427.500000000, A.D. 2024-Apr-27 00:00:00.0000, -5.930484553218064E+08, -4.047707729948157E+08, 1.640116851508243E+07,
2460434.500000000, A.D. 2024-May-04 00:00:00.0000, -5.883705780145401E+08, -4.104211760412127E+08, 1.601058405743176E+07,
2460441.500000000, A.D. 2024-May-11 00:00:00.0000, -5.836154299338731E+08, -4.160177004795400E+08, 1.561789750673237E+07,
2460448.500000000, A.D. 2024-May-18 00:00:00.0000, -5.787834205163617E+08, -4.215594591979052E+08, 1.522315467921123E+07,
2460455.500000000, A.D. 2024-May-25 00:00:00.0000, -5.738749656601059E+08, -4.270455630964479E+08, 1.482640174821770E+07,
2460462.500000000, A.D. 2024-Jun-01 00:00:00.0000, -5.688904879214597E+08, -4.324751211707357E+08, 1.442768524083799E+07,
2460469.500000000, A.D. 2024-Jun-08 00:00:00.0000, -5.638304164301608E+08, -4.378472407651358E+08, 1.402705199480850E+07,
2460476.500000000, A.D. 2024-Jun-15 00:00:00.0000, -5.586951861234860E+08, -4.431610274508404E+08, 1.362454908390379E+07,
2460483.500000000, A.D. 2024-Jun-22 00:00:00.0000, -5.534852373046654E+08, -4.484155833531611E+08, 1.322022390030748E+07,
2460490.500000000, A.D. 2024-Jun-29 00:00:00.0000, -5.482010176471188E+08, -4.536100057487931E+08, 1.281412444000906E+07,
2460497.500000000, A.D. 2024-Jul-06 00:00:00.0000, -5.428429839997073E+08, -4.587433884043622E+08, 1.240629934688374E+07,
2460504.500000000, A.D. 2024-Jul-13 00:00:00.0000, -5.374116020441332E+08, -4.638148228322448E+08, 1.199679776762971E+07,
2460511.500000000, A.D. 2024-Jul-20 00:00:00.0000, -5.319073457902896E+08, -4.688233983148326E+08, 1.158566929368153E+07,
2460518.500000000, A.D. 2024-Jul-27 00:00:00.0000, -5.263306975655133E+08, -4.737682016566241E+08, 1.117296397186416E+07,
2460525.500000000, A.D. 2024-Aug-03 00:00:00.0000, -5.206821482248119E+08, -4.786483170391309E+08, 1.075873232803312E+07,
2460532.500000000, A.D. 2024-Aug-10 00:00:00.0000, -5.149621974164186E+08, -4.834628259830709E+08, 1.034302538798043E+07,
2460539.500000000, A.D. 2024-Aug-17 00:00:00.0000, -5.091713538555619E+08, -4.882108073959984E+08, 9.925894692847788E+06,
2460546.500000000, A.D. 2024-Aug-24 00:00:00.0000, -5.033101355788279E+08, -4.928913377273295E+08, 9.507392304445863E+06,
2460553.500000000, A.D. 2024-Aug-31 00:00:00.0000, -4.973790700636477E+08, -4.975034912918416E+08, 9.087570784606785E+06,
2460560.500000000, A.D. 2024-Sep-07 00:00:00.0000, -4.913786938474550E+08, -5.020463406348142E+08, 8.666483125120401E+06,
2460567.500000000, A.D. 2024-Sep-14 00:00:00.0000, -4.853095515611697E+08, -5.065189559424964E+08, 8.244182701585442E+06,
2460574.500000000, A.D. 2024-Sep-21 00:00:00.0000, -4.791721964055397E+08, -5.109204030849969E+08, 7.820723470749915E+06,
2460581.500000000, A.D. 2024-Sep-28 00:00:00.0000, -4.729671925575415E+08, -5.152497435193563E+08, 7.396160192075610E+06,
2460588.500000000, A.D. 2024-Oct-05 00:00:00.0000, -4.666951158373007E+08, -5.195060360516284E+08, 6.970548336909920E+06,
2460595.500000000, A.D. 2024-Oct-12 00:00:00.0000, -4.603565529965639E+08, -5.236883374781686E+08, 6.543943961802125E+06,
2460602.500000000, A.D. 2024-Oct-19 00:00:00.0000, -4.539521013799175E+08, -5.277957023769350E+08, 6.116403684391201E+06,
2460609.500000000, A.D. 2024-Oct-26 00:00:00.0000, -4.474823689912439E+08, -5.318271828501220E+08, 5.687984699323952E+06,
2460616.500000000, A.D. 2024-Nov-02 00:00:00.0000, -4.409479747080988E+08, -5.357818283664342E+08, 5.258744798471630E+06,
2460623.500000000, A.D. 2024-Nov-09 00:00:00.0000, -4.343495485474215E+08, -5.396586856822267E+08, 4.828742388302207E+06,
2460630.500000000, A.D. 2024-Nov-16 00:00:00.0000, -4.276877319566703E+08, -5.434567988411561E+08, 4.398036502101123E+06,
2460637.500000000, A.D. 2024-Nov-23 00:00:00.0000, -4.209631780834402E+08, -5.471752093021374E+08, 3.966686798730046E+06,
2460644.500000000, A.D. 2024-Nov-30 00:00:00.0000, -4.141765518152661E+08, -5.508129562381699E+08, 3.534753525419384E+06,
2460651.500000000, A.D. 2024-Dec-07 00:00:00.0000, -4.073285291701683E+08, -5.543690765853360E+08, 3.102297440606594E+06,
2460658.500000000, A.D. 2024-Dec-14 00:00:00.0000, -4.004197967265207E+08, -5.578426036178949E+08, 2.669379860133886E+06,
2460665.500000000, A.D. 2024-Dec-21 00:00:00.0000, -3.934510534106047E+08, -5.612325652901545E+08, 2.236062938205957E+06,
2460672.500000000, A.D. 2024-Dec-28 00:00:00.0000, -3.864230126692324E+08, -5.645379853127543E+08, 1.802409759837449E+06,
2460679.500000000, A.D. 2025-Jan-04 00:00:00.0000, -3.793364024304089E+08, -5.677578845876753E+08, 1.368484200959176E+06,
2460686.500000000, A.D. 2025-Jan-11 00:00:00.0000, -3.721919646734777E+08, -5.708912813423544E+08, 9.343508591261208E+05,
2460693.500000000, A.D. 2025-Jan-18 00:00:00.0000, -3.649904555256359E+08, -5.739371908817630E+08, 5.000750641042590E+05,
2460700.500000000, A.D. 2025-Jan-25 00:00:00.0000, -3.577326456411554E+08, -5.768946254331515E+08, 6.572290747570992E+04,
2460707.500000000, A.D. 2025-Feb-01 00:00:00.0000, -3.504193206736408E+08, -5.797625941138933E+08, -3.686387283367813E+05,
2460714.500000000, A.D. 2025-Feb-08 00:00:00.0000, -3.430512817828194E+08, -5.825401030031749E+08, -8.029421451494098E+05,
$$EOE